IRIDIUM 7 [-]           
1 24793U 97020B   23321.56594715  .00000432  00000+0  14504-3 0  9991
2 24793  86.3978  58.8373 0001957 100.0464 260.0953 14.34977208389032
IRIDIUM 5 [-]           
1 24795U 97020D   23321.49604054  .00002930  00000+0  29036-3 0  9994
2 24795  86.3935 347.8637 0128424  37.5595 323.4512 14.85332526399477
IRIDIUM 4 [-]           
1 24796U 97020E   23321.35990107  .00000467  00000+0  15431-3 0  9994
2 24796  86.3977  56.1850 0001976  92.7657 267.3765 14.35885595389520
IRIDIUM 914 [-]         
1 24836U 97030A   23321.54073227  .00000613  00000+0  18970-3 0  9990
2 24836  86.3943  66.4002 0001705  37.2632 322.8684 14.39703137523980
IRIDIUM 16 [-]          
1 24841U 97030F   23321.41326693  .00000590  00000+0  19023-3 0  9994
2 24841  86.4018  87.8940 0003429 129.0746 231.0757 14.37588851383965
IRIDIUM 911 [-]         
1 24842U 97030G   23321.63465576  .00000763  00000+0  20801-3 0  9991
2 24842  86.4444  87.1039 0013167 215.0084 145.0254 14.46129720391570
IRIDIUM 17 [-]          
1 24870U 97034B   23321.52663159  .00000520  00000+0  16985-3 0  9990
2 24870  86.3931 117.5144 0003714  97.3326 262.8294 14.36679184380611
IRIDIUM 920 [-]         
1 24871U 97034C   23321.45920906  .00000611  00000+0  18603-3 0  9999
2 24871  86.3950  98.1124 0011609 176.8345 183.2930 14.40401675383384
